DELTA 2 R/B(1)          
1 20453U 90008B   25343.19699803  .00046878  00000+0  76092-3 0  9992
2 20453  35.6071  43.4047 0111649 146.2312 214.5594 15.44803990912084
COSMOS 2058             
1 20465U 90010A   25342.91557897  .00006247  00000+0  37836-3 0  9992
2 20465  82.4654 136.7921 0008243 289.4063  70.6275 15.10410948928533
SL-14 R/B               
1 20466U 90010B   25343.30543051  .00000821  00000+0  96803-4 0  9996
2 20466  82.5019 352.2728 0018514 235.1652 124.7822 14.83466754915084
SL-14 R/B               
1 20511U 90018B   25343.30388627  .00000948  00000+0  11616-3 0  9999
2 20511  82.5207 307.5760 0017283  34.1673 326.0650 14.82041365909192
HST                     
1 20580U 90037B   25343.19989290  .00010184  00000+0  35435-3 0  9994
2 20580  28.4695 296.5825 0001856 196.3317 163.7219 15.27973320759456
SL-16 R/B               
1 20625U 90046B   25342.85782797  .00000068  00000+0  59873-4 0  9992
2 20625  70.9987 128.6735 0011855  80.5083 279.7379 14.15000904835546
COSMOS 2084             
1 20663U 90055A   25343.17943795  .00004117  00000+0  29975-3 0  9995
2 20663  62.7911 284.1241 0032300 174.3018 185.8457 15.04982140922699
SL-6 R/B(2)             
1 20666U 90055D   25342.97518831  .00002644  00000+0  20953-3 0  9994
2 20666  62.7824 202.2071 0012345 305.9931  54.0023 15.03049402924557
SL-8 R/B                
1 20775U 90078B   25343.02725147  .00027331  00000+0  84657-3 0  9998
2 20775  82.9050 332.6327 0373192 318.4070  38.9294 14.85706585795826
SL-8 R/B                
1 21088U 91006B   25343.27676203  .00000106  00000+0  91628-4 0  9991
2 21088  82.9431 237.2885 0021336 290.0972 193.0770 13.77489510751620
OKEAN-3                 
1 21397U 91039A   25343.28931113  .00004941  00000+0  35444-3 0  9999
2 21397  82.5168  64.3869 0012820 279.2078  80.7698 15.04081651851449
COSMOS 2151             
1 21422U 91042A   25343.22036027  .00003056  00000+0  24544-3 0  9991
2 21422  82.4960 170.8950 0012859  11.3665 348.7846 14.99667858849632
