CCSDS_OMM_VERS = 2.0
CREATION_DATE  = 
ORIGINATOR     = 

OBJECT_NAME    = DELTA 2 R/B(1)
OBJECT_ID      = 1990-008B
CENTER_NAME    = EARTH
REF_FRAME      = TEME
TIME_SYSTEM    = UTC
MEAN_ELEMENT_THEORY = SGP/SGP4

EPOCH          = 2025-12-09T04:43:40.629792
MEAN_MOTION    = 15.44803990
ECCENTRICITY   = .01116496
INCLINATION    = 35.6071
RA_OF_ASC_NODE = 43.4047
ARG_OF_PERICENTER = 146.2312
MEAN_ANOMALY   = 214.5594

EPHEMERIS_TYPE = 0
CLASSIFICATION_TYPE = U
NORAD_CAT_ID   = 20453
ELEMENT_SET_NO = 999
REV_AT_EPOCH   = 91208
BSTAR          = .76092312E-3
MEAN_MOTION_DOT = .46878E-3
MEAN_MOTION_DDOT = 0

CCSDS_OMM_VERS = 2.0
CREATION_DATE  = 
ORIGINATOR     = 

OBJECT_NAME    = COSMOS 2058
OBJECT_ID      = 1990-010A
CENTER_NAME    = EARTH
REF_FRAME      = TEME
TIME_SYSTEM    = UTC
MEAN_ELEMENT_THEORY = SGP/SGP4

EPOCH          = 2025-12-08T21:58:26.023008
MEAN_MOTION    = 15.10410948
ECCENTRICITY   = .0008243
INCLINATION    = 82.4654
RA_OF_ASC_NODE = 136.7921
ARG_OF_PERICENTER = 289.4063
MEAN_ANOMALY   = 70.6275

EPHEMERIS_TYPE = 0
CLASSIFICATION_TYPE = U
NORAD_CAT_ID   = 20465
ELEMENT_SET_NO = 999
REV_AT_EPOCH   = 92853
BSTAR          = .37836E-3
MEAN_MOTION_DOT = .6247E-4
MEAN_MOTION_DDOT = 0

CCSDS_OMM_VERS = 2.0
CREATION_DATE  = 
ORIGINATOR     = 

OBJECT_NAME    = SL-14 R/B
OBJECT_ID      = 1990-010B
CENTER_NAME    = EARTH
REF_FRAME      = TEME
TIME_SYSTEM    = UTC
MEAN_ELEMENT_THEORY = SGP/SGP4

EPOCH          = 2025-12-09T07:19:49.196064
MEAN_MOTION    = 14.83466754
ECCENTRICITY   = .00185149
INCLINATION    = 82.5019
RA_OF_ASC_NODE = 352.2728
ARG_OF_PERICENTER = 235.1652
MEAN_ANOMALY   = 124.7822

EPHEMERIS_TYPE = 0
CLASSIFICATION_TYPE = U
NORAD_CAT_ID   = 20466
ELEMENT_SET_NO = 999
REV_AT_EPOCH   = 91508
BSTAR          = .9680264E-4
MEAN_MOTION_DOT = .821E-5
MEAN_MOTION_DDOT = 0

CCSDS_OMM_VERS = 2.0
CREATION_DATE  = 
ORIGINATOR     = 

OBJECT_NAME    = SL-14 R/B
OBJECT_ID      = 1990-018B
CENTER_NAME    = EARTH
REF_FRAME      = TEME
TIME_SYSTEM    = UTC
MEAN_ELEMENT_THEORY = SGP/SGP4

EPOCH          = 2025-12-09T07:17:35.773728
MEAN_MOTION    = 14.82041365
ECCENTRICITY   = .00172839
INCLINATION    = 82.5207
RA_OF_ASC_NODE = 307.5760
ARG_OF_PERICENTER = 34.1673
MEAN_ANOMALY   = 326.0650

EPHEMERIS_TYPE = 0
CLASSIFICATION_TYPE = U
NORAD_CAT_ID   = 20511
ELEMENT_SET_NO = 999
REV_AT_EPOCH   = 90919
BSTAR          = .11616145E-3
MEAN_MOTION_DOT = .948E-5
MEAN_MOTION_DDOT = 0

CCSDS_OMM_VERS = 2.0
CREATION_DATE  = 
ORIGINATOR     = 

OBJECT_NAME    = HST
OBJECT_ID      = 1990-037B
CENTER_NAME    = EARTH
REF_FRAME      = TEME
TIME_SYSTEM    = UTC
MEAN_ELEMENT_THEORY = SGP/SGP4

EPOCH          = 2025-12-09T04:47:50.746560
MEAN_MOTION    = 15.27973320
ECCENTRICITY   = .00018561
INCLINATION    = 28.4695
RA_OF_ASC_NODE = 296.5825
ARG_OF_PERICENTER = 196.3317
MEAN_ANOMALY   = 163.7219

EPHEMERIS_TYPE = 0
CLASSIFICATION_TYPE = U
NORAD_CAT_ID   = 20580
ELEMENT_SET_NO = 999
REV_AT_EPOCH   = 75945
BSTAR          = .35435252E-3
MEAN_MOTION_DOT = .10184E-3
MEAN_MOTION_DDOT = 0

CCSDS_OMM_VERS = 2.0
CREATION_DATE  = 
ORIGINATOR     = 

OBJECT_NAME    = SL-16 R/B
OBJECT_ID      = 1990-046B
CENTER_NAME    = EARTH
REF_FRAME      = TEME
TIME_SYSTEM    = UTC
MEAN_ELEMENT_THEORY = SGP/SGP4

EPOCH          = 2025-12-08T20:35:16.336608
MEAN_MOTION    = 14.15000904
ECCENTRICITY   = .0011855
INCLINATION    = 70.9987
RA_OF_ASC_NODE = 128.6735
ARG_OF_PERICENTER = 80.5083
MEAN_ANOMALY   = 279.7379

EPHEMERIS_TYPE = 0
CLASSIFICATION_TYPE = U
NORAD_CAT_ID   = 20625
ELEMENT_SET_NO = 999
REV_AT_EPOCH   = 83554
BSTAR          = .59873E-4
MEAN_MOTION_DOT = .68E-6
MEAN_MOTION_DDOT = 0

CCSDS_OMM_VERS = 2.0
CREATION_DATE  = 
ORIGINATOR     = 

OBJECT_NAME    = COSMOS 2084
OBJECT_ID      = 1990-055A
CENTER_NAME    = EARTH
REF_FRAME      = TEME
TIME_SYSTEM    = UTC
MEAN_ELEMENT_THEORY = SGP/SGP4

EPOCH          = 2025-12-09T04:18:23.438880
MEAN_MOTION    = 15.04982140
ECCENTRICITY   = .00323003
INCLINATION    = 62.7911
RA_OF_ASC_NODE = 284.1241
ARG_OF_PERICENTER = 174.3018
MEAN_ANOMALY   = 185.8457

EPHEMERIS_TYPE = 0
CLASSIFICATION_TYPE = U
NORAD_CAT_ID   = 20663
ELEMENT_SET_NO = 999
REV_AT_EPOCH   = 92269
BSTAR          = .29975079E-3
MEAN_MOTION_DOT = .4117E-4
MEAN_MOTION_DDOT = 0

CCSDS_OMM_VERS = 2.0
CREATION_DATE  = 
ORIGINATOR     = 

OBJECT_NAME    = SL-6 R/B(2)
OBJECT_ID      = 1990-055D
CENTER_NAME    = EARTH
REF_FRAME      = TEME
TIME_SYSTEM    = UTC
MEAN_ELEMENT_THEORY = SGP/SGP4

EPOCH          = 2025-12-08T23:24:16.269984
MEAN_MOTION    = 15.03049402
ECCENTRICITY   = .0012345
INCLINATION    = 62.7824
RA_OF_ASC_NODE = 202.2071
ARG_OF_PERICENTER = 305.9931
MEAN_ANOMALY   = 54.0023

EPHEMERIS_TYPE = 0
CLASSIFICATION_TYPE = U
NORAD_CAT_ID   = 20666
ELEMENT_SET_NO = 999
REV_AT_EPOCH   = 92455
BSTAR          = .20953E-3
MEAN_MOTION_DOT = .2644E-4
MEAN_MOTION_DDOT = 0

CCSDS_OMM_VERS = 2.0
CREATION_DATE  = 
ORIGINATOR     = 

OBJECT_NAME    = SL-8 R/B
OBJECT_ID      = 1990-078B
CENTER_NAME    = EARTH
REF_FRAME      = TEME
TIME_SYSTEM    = UTC
MEAN_ELEMENT_THEORY = SGP/SGP4

EPOCH          = 2025-12-09T00:39:14.527008
MEAN_MOTION    = 14.85706585
ECCENTRICITY   = .03731925
INCLINATION    = 82.9050
RA_OF_ASC_NODE = 332.6327
ARG_OF_PERICENTER = 318.4070
MEAN_ANOMALY   = 38.9294

EPHEMERIS_TYPE = 0
CLASSIFICATION_TYPE = U
NORAD_CAT_ID   = 20775
ELEMENT_SET_NO = 999
REV_AT_EPOCH   = 79582
BSTAR          = .84656796E-3
MEAN_MOTION_DOT = .27331E-3
MEAN_MOTION_DDOT = 0

CCSDS_OMM_VERS = 2.0
CREATION_DATE  = 
ORIGINATOR     = 

OBJECT_NAME    = SL-8 R/B
OBJECT_ID      = 1991-006B
CENTER_NAME    = EARTH
REF_FRAME      = TEME
TIME_SYSTEM    = UTC
MEAN_ELEMENT_THEORY = SGP/SGP4

EPOCH          = 2025-12-09T06:38:32.239392
MEAN_MOTION    = 13.77489510
ECCENTRICITY   = .00213366
INCLINATION    = 82.9431
RA_OF_ASC_NODE = 237.2885
ARG_OF_PERICENTER = 290.0972
MEAN_ANOMALY   = 193.0770

EPHEMERIS_TYPE = 0
CLASSIFICATION_TYPE = U
NORAD_CAT_ID   = 21088
ELEMENT_SET_NO = 999
REV_AT_EPOCH   = 75162
BSTAR          = .91627603E-4
MEAN_MOTION_DOT = .106E-5
MEAN_MOTION_DDOT = 0

CCSDS_OMM_VERS = 2.0
CREATION_DATE  = 
ORIGINATOR     = 

OBJECT_NAME    = OKEAN-3
OBJECT_ID      = 1991-039A
CENTER_NAME    = EARTH
REF_FRAME      = TEME
TIME_SYSTEM    = UTC
MEAN_ELEMENT_THEORY = SGP/SGP4

EPOCH          = 2025-12-09T06:56:36.481632
MEAN_MOTION    = 15.04081651
ECCENTRICITY   = .001282
INCLINATION    = 82.5168
RA_OF_ASC_NODE = 64.3869
ARG_OF_PERICENTER = 279.2078
MEAN_ANOMALY   = 80.7698

EPHEMERIS_TYPE = 0
CLASSIFICATION_TYPE = U
NORAD_CAT_ID   = 21397
ELEMENT_SET_NO = 999
REV_AT_EPOCH   = 85144
BSTAR          = .35443855E-3
MEAN_MOTION_DOT = .4941E-4
MEAN_MOTION_DDOT = 0

CCSDS_OMM_VERS = 2.0
CREATION_DATE  = 
ORIGINATOR     = 

OBJECT_NAME    = COSMOS 2151
OBJECT_ID      = 1991-042A
CENTER_NAME    = EARTH
REF_FRAME      = TEME
TIME_SYSTEM    = UTC
MEAN_ELEMENT_THEORY = SGP/SGP4

EPOCH          = 2025-12-09T05:17:19.127328
MEAN_MOTION    = 14.99667858
ECCENTRICITY   = .00128594
INCLINATION    = 82.4960
RA_OF_ASC_NODE = 170.8950
ARG_OF_PERICENTER = 11.3665
MEAN_ANOMALY   = 348.7846

EPHEMERIS_TYPE = 0
CLASSIFICATION_TYPE = U
NORAD_CAT_ID   = 21422
ELEMENT_SET_NO = 999
REV_AT_EPOCH   = 84963
BSTAR          = .24543631E-3
MEAN_MOTION_DOT = .3056E-4
MEAN_MOTION_DDOT = 0

